{
  "norad_id": 53866,
  "name": "STARLINK-4762",
  "history": [
    {
      "epoch": "2026-03-28T15:54:07.972128",
      "apogee_km": 540.7284999799267,
      "perigee_km": 538.6849689407672,
      "latitude_deg": 27.85226399677726,
      "longitude_deg": -9.791142079979181,
      "semi_major_axis_km": 6917.843734460346,
      "eccentricity": 0.0001477,
      "inclination_deg": 53.2178,
      "raan_deg": 179.1553,
      "arg_perigee_deg": 93.0199,
      "mean_anomaly_deg": 267.0963,
      "mean_motion_rev_day": 15.08851992
    }
  ]
}